STARLINK-2021           
1 47604U 21009BJ  24082.18481544  .00002342  00000+0  17613-3 0  9995
2 47604  53.0564 352.6192 0001690  96.5771 263.5410 15.06389621173402
STARLINK-2024           
1 47606U 21009BL  24082.18849930  .00001627  00000+0  12812-3 0  9995
2 47606  53.0564 352.6041 0001417  95.6355 264.4796 15.06392738172793
STARLINK-2025           
1 47607U 21009BM  24082.72797508  .00014809  00000+0  10104-2 0  9996
2 47607  53.0536 344.9768 0001187 110.7555 249.3561 15.06420708173543
STARLINK-1528           
1 47620U 21012A   24082.71373820  .00002085  00000+0  15879-3 0  9999
2 47620  53.0552  50.2429 0001365 107.2418 252.8720 15.06405758171401
STARLINK-1609           
1 47621U 21012B   24082.30829197  .00000515  00000+0  53476-4 0  9990
2 47621  53.0534  52.0680 0001475  87.2693 272.8465 15.06388713171864
STARLINK-1645           
1 47622U 21012C   24082.30364861  .00000291  00000+0  38456-4 0  9995
2 47622  53.0533  52.0767 0001471  91.3801 268.7357 15.06392489171851
STARLINK-1655           
1 47623U 21012D   24082.11708561  .00014412  00000+0  98433-3 0  9994
2 47623  53.0553 347.9250 0001400  99.8819 260.2328 15.06403616172740
STARLINK-1669           
1 47624U 21012E   24082.84089504  .00004660  00000+0  33144-3 0  9996
2 47624  53.0553  29.6716 0001226  94.9014 265.2115 15.06411701171709
STARLINK-1704           
1 47625U 21012F   24082.17832730 -.00000961  00000+0 -45654-4 0  9992
2 47625  53.0523  52.6397 0001404  93.1775 266.9375 15.06389868171839
STARLINK-1761           
1 47626U 21012G   24082.89433721  .00001630  00000+0  12824-3 0  9993
2 47626  53.0544  49.4334 0001499  90.0457 270.0704 15.06411263171438
STARLINK-1972           
1 47627U 21012H   24082.83861613  .00005683  00000+0  40010-3 0  9993
2 47627  53.0544 314.6812 0001416  81.7723 278.3426 15.06399317172741
STARLINK-1973           
1 47628U 21012J   24082.33313373  .00000640  00000+0  61873-4 0  9993
2 47628  53.0545  51.9423 0001309  90.4446 269.6693 15.06399963171860
STARLINK-1974           
1 47629U 21012K   24082.84644247  .00004197  00000+0  30048-3 0  9997
2 47629  53.0538 289.6507 0001085  84.6579 275.4533 15.06398032173102
STARLINK-1983           
1 47630U 21012L   24082.87037875  .00001065  00000+0  90323-4 0  9999
2 47630  53.0538  29.6295 0001407 104.2873 255.8272 15.06418318171700
STARLINK-1992           
1 47632U 21012N   24082.86346283  .00006659  00000+0  46575-3 0  9999
2 47632  53.0546 314.5767 0001362 102.7648 257.3493 15.06379054172755
STARLINK-2009           
1 47633U 21012P   24082.88234679 -.00000219  00000+0  41789-5 0  9998
2 47633  53.0556  49.5157 0001419  95.8962 264.2189 15.06399680171439
STARLINK-2010           
1 47634U 21012Q   24082.32670881  .00001809  00000+0  14033-3 0  9992
2 47634  53.0546  51.9821 0001510  96.8282 263.2879 15.06402228171856
STARLINK-2012           
1 47635U 21012R   24082.81649463  .00005622  00000+0  39592-3 0  9993
2 47635  53.0545 314.7853 0001644 105.5009 254.6162 15.06406251172742
STARLINK-2013           
1 47636U 21012S   24082.84457657  .00005325  00000+0  37581-3 0  9995
2 47636  53.0553  29.6581 0001390  85.3908 274.7240 15.06426819171700
STARLINK-2014           
1 47637U 21012T   24082.28432599  .00009216  00000+0  63663-3 0  9995
2 47637  53.0553  32.1712 0001341 112.5024 247.6107 15.06408059172140
STARLINK-2015           
1 47638U 21012U   24082.87915456 -.00000359  00000+0 -51756-5 0  9992
2 47638  53.0540 314.5020 0001600 116.2883 243.8270 15.06393095172768
STARLINK-2016           
1 47639U 21012V   24082.85931662  .00004004  00000+0  28745-3 0  9997
2 47639  53.0548  29.5893 0001097  95.4829 264.6285 15.06414657171704
STARLINK-2018           
1 47640U 21012W   24082.19032876 -.00000367  00000+0 -57089-5 0  9990
2 47640  53.0548  52.5938 0001539  93.0218 267.0947 15.06399446171844
STARLINK-2019           
1 47641U 21012X   24082.86440787  .00000926  00000+0  81035-4 0  9995
2 47641  53.0550 314.5600 0001562 108.2495 251.8664 15.06411467172753
STARLINK-2020           
1 47642U 21012Y   24082.19632058  .00000155  00000+0  29285-4 0  9999
2 47642  53.0552  47.5654 0001677  98.3801 261.7378 15.06393974171905
STARLINK-2022           
1 47643U 21012Z   24082.87405569 -.00006090  00000+0 -39007-3 0  9998
2 47643  53.0565  29.5266 0001118  93.8059 266.3057 15.06418788171708
STARLINK-2026           
1 47644U 21012AA  24082.58335648  .00228118  00000+0  97658-2 0  9997
2 47644  53.0538  49.6067 0001359  74.9215 348.2914 15.21324349  5762
STARLINK-2027           
1 47645U 21012AB  24082.24473412  .00000984  00000+0  84942-4 0  9996
2 47645  53.0565  22.5873 0001471 112.1313 247.9832 15.06398585172245
STARLINK-2028           
1 47646U 21012AC  24082.03234826  .00031615  00000+0  21316-2 0  9997
2 47646  53.0570 348.5444 0001475 116.5731 243.5409 15.06404538172702
STARLINK-2030           
1 47647U 21012AD  24082.23455494 -.00001480  00000+0 -80465-4 0  9997
2 47647  53.0536  52.3949 0001472  94.7160 265.3997 15.06393894171856
STARLINK-2031           
1 47648U 21012AE  24082.22535169 -.00000838  00000+0 -37395-4 0  9995
2 47648  53.0547  32.4357 0001303 108.5229 251.5902 15.06394331172136
STARLINK-2032           
1 47649U 21012AF  24082.82614812  .00002415  00000+0  18087-3 0  9992
2 47649  53.0567  29.7380 0001673 116.2743 243.8418 15.06421259171709
STARLINK-2033           
1 47650U 21012AG  24082.87774565  .00004509  00000+0  32127-3 0  9998
2 47650  53.0549  29.5083 0001094  87.2530 272.8585 15.06411034171704
STARLINK-2035           
1 47651U 21012AH  24082.18664651 -.00001174  00000+0 -59929-4 0  9994
2 47651  53.0535  52.6595 0001335  98.4834 261.6306 15.06394004171843
STARLINK-2036           
1 47652U 21012AJ  24082.34050985 -.00000786  00000+0 -33886-4 0  9994
2 47652  53.0555  51.9081 0001277  96.6054 263.5080 15.06391272171863
STARLINK-2037           
1 47653U 21012AK  24082.26958549 -.00000341  00000+0 -40348-5 0  9998
2 47653  53.0562  32.2394 0001387 101.1563 258.9582 15.06389920171615
STARLINK-2038           
1 47654U 21012AL  24082.27879956 -.00001402  00000+0 -75249-4 0  9990
2 47654  53.0557  52.1953 0001479  86.4014 273.7144 15.06393757171858
STARLINK-2039           
1 47655U 21012AM  24082.20507350 -.00003175  00000+0 -19443-3 0  9992
2 47655  53.0544  52.5273 0001413  93.6260 266.4890 15.06388882171844
STARLINK-2040           
1 47656U 21012AN  24082.88512454  .00003851  00000+0  27729-3 0  9993
2 47656  53.0544  29.4732 0001314 104.7376 255.3759 15.06398330171705
STARLINK-2041           
1 47657U 21012AP  24082.29353793 -.00001667  00000+0 -93083-4 0  9990
2 47657  53.0544  52.1307 0001568  88.0239 272.0930 15.06385687171854
STARLINK-2042           
1 47658U 21012AQ  24082.35250722 -.00002493  00000+0 -14850-3 0  9998
2 47658  53.0550  51.8690 0001552 110.7656 249.3499 15.06398931171888
STARLINK-2043           
1 47659U 21012AR  24082.84275866  .00004533  00000+0  32305-3 0  9999
2 47659  53.0529 289.6708 0001209  86.9770 273.1358 15.06397097173092
STARLINK-2044           
1 47660U 21012AS  24082.86217466 -.00000823  00000+0 -36399-4 0  9993
2 47660  53.0530 280.2063 0001151  98.5743 261.5377 15.06392341173237
STARLINK-2051           
1 47661U 21012AT  24082.84826520  .00004713  00000+0  33498-3 0  9995
2 47661  53.0562  29.6386 0001240 120.9149 239.1962 15.06411984171701
STARLINK-2052           
1 47662U 21012AU  24082.23177012 -.00001539  00000+0 -84479-4 0  9995
2 47662  53.0562  32.4106 0001393  96.3289 263.7859 15.06392852172132
STARLINK-2053           
1 47663U 21012AV  24082.82621701  .00002231  00000+0  16864-3 0  9990
2 47663  53.0542 310.0635 0001095  76.3676 283.7434 15.06388933172811
STARLINK-2054           
1 47664U 21012AW  24082.23272824  .00000825  00000+0  74305-4 0  9996
2 47664  53.0579  32.4069 0001665 107.9498 252.1673 15.06393826172131
STARLINK-2056           
1 47665U 21012AX  24082.27926038  .00001075  00000+0  91076-4 0  9996
2 47665  53.0561  27.2423 0001648 114.7339 245.3822 15.06400541172201
STARLINK-2057           
1 47666U 21012AY  24082.27561592  .00013158  00000+0  90022-3 0  9991
2 47666  53.0551  27.5697 0001465 102.3478 257.7674 15.06416236172201
STARLINK-2058           
1 47667U 21012AZ  24082.33038960  .00001295  00000+0  10582-3 0  9999
2 47667  53.0545  51.9644 0001191  91.5503 268.5623 15.06401968171841
STARLINK-2059           
1 47668U 21012BA  24082.24008235 -.00004522  00000+0 -28495-3 0  9992
2 47668  53.0548  32.3695 0001502  82.1284 277.9875 15.06385999172133
STARLINK-2062           
1 47670U 21012BC  24082.85194578  .00000253  00000+0  35863-4 0  9991
2 47670  53.0570  29.6142 0001780 122.7095 237.4065 15.06411415171703
STARLINK-2064           
1 47671U 21012BD  24082.83351065 -.00000470  00000+0 -12695-4 0  9997
2 47671  53.0544  29.7021 0000958 100.7218 259.3879 15.06412331171705
STARLINK-2065           
1 47672U 21012BE  24082.21521441  .00001679  00000+0  13161-3 0  9995
2 47672  53.0563  22.4813 0001548  88.7571 271.3595 15.06398615172246
STARLINK-2066           
1 47673U 21012BF  24082.25851020 -.00001400  00000+0 -75115-4 0  9991
2 47673  53.0541  32.2862 0001126 117.8268 242.2835 15.06394600172126
STARLINK-2067           
1 47674U 21012BG  24082.27231493  .00000433  00000+0  47945-4 0  9993
2 47674  53.0537  32.2135 0001391 113.3467 246.7669 15.06399438172130
STARLINK-2078           
1 47675U 21012BH  24082.13321317  .00003704  00000+0  26739-3 0  9995
2 47675  53.0548  32.8504 0001668  95.5789 264.5390 15.06401684172118
STARLINK-2083           
1 47676U 21012BJ  24082.85841957  .00002792  00000+0  20624-3 0  9995
2 47676  53.0526 279.5974 0001336  98.4485 261.6655 15.06396405173244
STARLINK-2090           
1 47677U 21012BK  24082.18569846  .00000787  00000+0  71715-4 0  9996
2 47677  53.0537  52.6040 0001463  91.8768 268.2389 15.06387270171833
